54146,ONEWEB-0531,2022,109.03,148.0,+,87.92,Active,1,LEO,India,UK,Commercial,Communications,PSLV,1 54146U 22138AK  24244.92111336  .00000038  00000+0  61006-4 0  9995,2 54146  87.9206  44.5744 0002894  95.9869 264.1594 13.20769710 92942,13.2076971,0.0002894,LEO
54147,ONEWEB-0535,2022,109.11,148.0,+,87.91,Active,1,LEO,India,UK,Commercial,Communications,PSLV,1 54147U 22138AL  24244.93201151  .00000066  00000+0  13325-3 0  9993,2 54147  87.9086  75.1067 0002061  87.7009 272.4360 13.19723568 90544,13.19723568,0.0002061,LEO
54148,ONEWEB-0536,2022,109.03,148.0,+,87.92,Active,1,LEO,India,UK,Commercial,Communications,PSLV,1 54148U 22138AM  24244.90846141 -.00000002  00000+0 -36646-4 0  9999,2 54148  87.9205  44.6251 0002780  82.5513 277.5936 13.20774012 92937,13.20774012,0.000278,LEO
54642,ONEWEB-0527,2022,108.94,148.0,+,87.93,Active,1,LEO,USA,UK,Commercial,Communications,Falcon,1 54642U 22166A   24244.92732224  .00000088  00000+0  18140-3 0  9997,2 54642  87.9339  14.2529 0001894 100.7122 259.4225 13.21827041 85102,13.21827041,0.0001894,LEO
54643,ONEWEB-0528,2022,108.94,148.0,+,87.93,Active,1,LEO,USA,UK,Commercial,Communications,Falcon,1 54643U 22166B   24244.93362012 -.00000323  00000+0 -81269-3 0  9999,2 54643  87.9343  14.2412 0001753 103.3409 256.7920 13.21823678 85115,13.21823678,0.0001753,LEO
54644,ONEWEB-0539,2022,108.94,148.0,+,87.93,Active,1,LEO,USA,UK,Commercial,Communications,Falcon,1 54644U 22166C   24244.89419996  .00000049  00000+0  87020-4 0  9994,2 54644  87.9348  14.2524 0001627  93.7967 266.3353 13.21827686 85105,13.21827686,0.0001627,LEO
54645,ONEWEB-0540,2022,108.94,148.0,+,87.93,Active,1,LEO,USA,UK,Commercial,Communications,Falcon,1 54645U 22166D   24245.11578433  .00000016  00000+0  71314-5 0  9997,2 54645  87.9342  14.2222 0001571  92.4350 267.6964 13.21826161 85597,13.21826161,0.0001571,LEO
54646,ONEWEB-0542,2022,108.94,148.0,+,87.93,Active,1,LEO,USA,UK,Commercial,Communications,Falcon,1 54646U 22166E   24245.13076513  .00000048  00000+0  85755-4 0  9990,2 54646  87.9344  14.2046 0001790  82.6963 277.4374 13.21823653 85595,13.21823653,0.000179,LEO
